{"type":"FeatureCollection","features":[{"type":"Feature","properties":{"borough":"Staten Island"},"geometry":{"type":"Point","coordinates":[-74.13643,40.59283]}},{"type":"Feature","properties":{"borough":"Brooklyn"},"geometry":{"type":"Point","coordinates":[-73.96771,40.63181]}},{"type":"Feature","properties":{"borough":"Queens"},"geometry":{"type":"Point","coordinates":[-73.79644,40.72094]}},{"type":"Feature","properties":{"borough":"Manhattan"},"geometry":{"type":"Point","coordinates":[-73.96403,40.78176]}},{"type":"Feature","properties":{"borough":"Bronx"},"geometry":{"type":"Point","coordinates":[-73.87127,40.86259]}}]}