{"type":"FeatureCollection","features":[{"type":"Feature","properties":{"battalion":1,"borough":"Manhattan"},"geometry":{"type":"Point","coordinates":[-74.00882,40.71133]}},{"type":"Feature","properties":{"battalion":2,"borough":"Manhattan"},"geometry":{"type":"Point","coordinates":[-74.00528,40.73501]}},{"type":"Feature","properties":{"battalion":3,"borough":"Bronx"},"geometry":{"type":"Point","coordinates":[-73.85431,40.82613]}},{"type":"Feature","properties":{"battalion":4,"borough":"Manhattan"},"geometry":{"type":"Point","coordinates":[-73.98282,40.71882]}},{"type":"Feature","properties":{"battalion":6,"borough":"Manhattan"},"geometry":{"type":"Point","coordinates":[-73.99065,40.7352]}},{"type":"Feature","properties":{"battalion":7,"borough":"Manhattan"},"geometry":{"type":"Point","coordinates":[-73.99844,40.75056]}},{"type":"Feature","properties":{"battalion":8,"borough":"Manhattan"},"geometry":{"type":"Point","coordinates":[-73.97636,40.74828]}},{"type":"Feature","properties":{"battalion":9,"borough":"Manhattan"},"geometry":{"type":"Point","coordinates":[-73.9892,40.76606]}},{"type":"Feature","properties":{"battalion":10,"borough":"Manhattan"},"geometry":{"type":"Point","coordinates":[-73.95736,40.77907]}},{"type":"Feature","properties":{"battalion":11,"borough":"Manhattan"},"geometry":{"type":"Point","coordinates":[-73.95868,40.80894]}},{"type":"Feature","properties":{"battalion":12,"borough":"Manhattan"},"geometry":{"type":"Point","coordinates":[-73.94051,40.7978]}},{"type":"Feature","properties":{"battalion":13,"borough":"Manhattan"},"geometry":{"type":"Point","coordinates":[-73.93814,40.8462]}},{"type":"Feature","properties":{"battalion":14,"borough":"Bronx"},"geometry":{"type":"Point","coordinates":[-73.92325,40.81172]}},{"type":"Feature","properties":{"battalion":15,"borough":"Bronx"},"geometry":{"type":"Point","coordinates":[-73.84105,40.87472]}},{"type":"Feature","properties":{"battalion":16,"borough":"Manhattan"},"geometry":{"type":"Point","coordinates":[-73.94106,40.81923]}},{"type":"Feature","properties":{"battalion":17,"borough":"Bronx"},"geometry":{"type":"Point","coordinates":[-73.91925,40.8384]}},{"type":"Feature","properties":{"battalion":18,"borough":"Bronx"},"geometry":{"type":"Point","coordinates":[-73.88565,40.84773]}},{"type":"Feature","properties":{"battalion":19,"borough":"Bronx"},"geometry":{"type":"Point","coordinates":[-73.90007,40.87764]}},{"type":"Feature","properties":{"battalion":20,"borough":"Bronx"},"geometry":{"type":"Point","coordinates":[-73.82682,40.82636]}},{"type":"Feature","properties":{"battalion":21,"borough":"Staten Island"},"geometry":{"type":"Point","coordinates":[-74.0792,40.60277]}},{"type":"Feature","properties":{"battalion":22,"borough":"Staten Island"},"geometry":{"type":"Point","coordinates":[-74.1743,40.6143]}},{"type":"Feature","properties":{"battalion":23,"borough":"Staten Island"},"geometry":{"type":"Point","coordinates":[-74.19071,40.54438]}},{"type":"Feature","properties":{"battalion":26,"borough":"Bronx"},"geometry":{"type":"Point","coordinates":[-73.90002,40.82394]}},{"type":"Feature","properties":{"battalion":27,"borough":"Bronx"},"geometry":{"type":"Point","coordinates":[-73.90229,40.89987]}},{"type":"Feature","properties":{"battalion":28,"borough":"Brooklyn"},"geometry":{"type":"Point","coordinates":[-73.92575,40.70439]}},{"type":"Feature","properties":{"battalion":31,"borough":"Brooklyn"},"geometry":{"type":"Point","coordinates":[-73.96839,40.69241]}},{"type":"Feature","properties":{"battalion":32,"borough":"Brooklyn"},"geometry":{"type":"Point","coordinates":[-74.00316,40.67874]}},{"type":"Feature","properties":{"battalion":33,"borough":"Brooklyn"},"geometry":{"type":"Point","coordinates":[-73.94041,40.61513]}},{"type":"Feature","properties":{"battalion":35,"borough":"Brooklyn"},"geometry":{"type":"Point","coordinates":[-73.95087,40.71461]}},{"type":"Feature","properties":{"battalion":37,"borough":"Brooklyn"},"geometry":{"type":"Point","coordinates":[-73.92509,40.68618]}},{"type":"Feature","properties":{"battalion":38,"borough":"Brooklyn"},"geometry":{"type":"Point","coordinates":[-73.9433,40.66395]}},{"type":"Feature","properties":{"battalion":39,"borough":"Brooklyn"},"geometry":{"type":"Point","coordinates":[-73.87293,40.66397]}},{"type":"Feature","properties":{"battalion":40,"borough":"Brooklyn"},"geometry":{"type":"Point","coordinates":[-74.01769,40.63838]}},{"type":"Feature","properties":{"battalion":41,"borough":"Brooklyn"},"geometry":{"type":"Point","coordinates":[-73.95738,40.64017]}},{"type":"Feature","properties":{"battalion":42,"borough":"Brooklyn"},"geometry":{"type":"Point","coordinates":[-74.00653,40.6148]}},{"type":"Feature","properties":{"battalion":43,"borough":"Brooklyn"},"geometry":{"type":"Point","coordinates":[-73.98473,40.59456]}},{"type":"Feature","properties":{"battalion":44,"borough":"Brooklyn"},"geometry":{"type":"Point","coordinates":[-73.90991,40.67042]}},{"type":"Feature","properties":{"battalion":45,"borough":"Queens"},"geometry":{"type":"Point","coordinates":[-73.93612,40.75453]}},{"type":"Feature","properties":{"battalion":46,"borough":"Queens"},"geometry":{"type":"Point","coordinates":[-73.88099,40.73176]}},{"type":"Feature","properties":{"battalion":47,"borough":"Queens"},"geometry":{"type":"Point","coordinates":[-73.75535,40.60055]}},{"type":"Feature","properties":{"battalion":48,"borough":"Brooklyn"},"geometry":{"type":"Point","coordinates":[-73.98202,40.66133]}},{"type":"Feature","properties":{"battalion":49,"borough":"Queens"},"geometry":{"type":"Point","coordinates":[-73.90099,40.76399]}},{"type":"Feature","properties":{"battalion":50,"borough":"Queens"},"geometry":{"type":"Point","coordinates":[-73.80464,40.69769]}},{"type":"Feature","properties":{"battalion":51,"borough":"Queens"},"geometry":{"type":"Point","coordinates":[-73.84265,40.68224]}},{"type":"Feature","properties":{"battalion":52,"borough":"Queens"},"geometry":{"type":"Point","coordinates":[-73.81785,40.77304]}},{"type":"Feature","properties":{"battalion":53,"borough":"Queens"},"geometry":{"type":"Point","coordinates":[-73.72787,40.74468]}},{"type":"Feature","properties":{"battalion":54,"borough":"Queens"},"geometry":{"type":"Point","coordinates":[-73.77671,40.65269]}},{"type":"Feature","properties":{"battalion":57,"borough":"Brooklyn"},"geometry":{"type":"Point","coordinates":[-73.94828,40.6892]}},{"type":"Feature","properties":{"battalion":58,"borough":"Brooklyn"},"geometry":{"type":"Point","coordinates":[-73.90539,40.64322]}}]}