{"type":"FeatureCollection","features":[{"type":"Feature","properties":{"precinct":1,"borough":"Manhattan"},"geometry":{"type":"Point","coordinates":[-74.01145,40.70826]}},{"type":"Feature","properties":{"precinct":5,"borough":"Manhattan"},"geometry":{"type":"Point","coordinates":[-73.99852,40.71453]}},{"type":"Feature","properties":{"precinct":6,"borough":"Manhattan"},"geometry":{"type":"Point","coordinates":[-74.00493,40.73443]}},{"type":"Feature","properties":{"precinct":7,"borough":"Manhattan"},"geometry":{"type":"Point","coordinates":[-73.98537,40.71557]}},{"type":"Feature","properties":{"precinct":9,"borough":"Manhattan"},"geometry":{"type":"Point","coordinates":[-73.98786,40.72804]}},{"type":"Feature","properties":{"precinct":10,"borough":"Manhattan"},"geometry":{"type":"Point","coordinates":[-74.00303,40.74638]}},{"type":"Feature","properties":{"precinct":13,"borough":"Manhattan"},"geometry":{"type":"Point","coordinates":[-73.98122,40.73727]}},{"type":"Feature","properties":{"precinct":14,"borough":"Manhattan"},"geometry":{"type":"Point","coordinates":[-73.98762,40.75223]}},{"type":"Feature","properties":{"precinct":17,"borough":"Manhattan"},"geometry":{"type":"Point","coordinates":[-73.96673,40.75638]}},{"type":"Feature","properties":{"precinct":18,"borough":"Manhattan"},"geometry":{"type":"Point","coordinates":[-73.99132,40.76593]}},{"type":"Feature","properties":{"precinct":19,"borough":"Manhattan"},"geometry":{"type":"Point","coordinates":[-73.9528,40.77717]}},{"type":"Feature","properties":{"precinct":20,"borough":"Manhattan"},"geometry":{"type":"Point","coordinates":[-73.97954,40.78242]}},{"type":"Feature","properties":{"precinct":22,"borough":"Manhattan"},"geometry":{"type":"Point","coordinates":[-73.97435,40.77044]}},{"type":"Feature","properties":{"precinct":23,"borough":"Manhattan"},"geometry":{"type":"Point","coordinates":[-73.94449,40.79104]}},{"type":"Feature","properties":{"precinct":24,"borough":"Manhattan"},"geometry":{"type":"Point","coordinates":[-73.96918,40.79692]}},{"type":"Feature","properties":{"precinct":25,"borough":"Manhattan"},"geometry":{"type":"Point","coordinates":[-73.92108,40.79415]}},{"type":"Feature","properties":{"precinct":26,"borough":"Manhattan"},"geometry":{"type":"Point","coordinates":[-73.95979,40.81258]}},{"type":"Feature","properties":{"precinct":28,"borough":"Manhattan"},"geometry":{"type":"Point","coordinates":[-73.9518,40.8041]}},{"type":"Feature","properties":{"precinct":30,"borough":"Manhattan"},"geometry":{"type":"Point","coordinates":[-73.94799,40.82785]}},{"type":"Feature","properties":{"precinct":32,"borough":"Manhattan"},"geometry":{"type":"Point","coordinates":[-73.94228,40.81599]}},{"type":"Feature","properties":{"precinct":33,"borough":"Manhattan"},"geometry":{"type":"Point","coordinates":[-73.93925,40.84211]}},{"type":"Feature","properties":{"precinct":34,"borough":"Manhattan"},"geometry":{"type":"Point","coordinates":[-73.93017,40.85774]}},{"type":"Feature","properties":{"precinct":40,"borough":"Bronx"},"geometry":{"type":"Point","coordinates":[-73.9158,40.81139]}},{"type":"Feature","properties":{"precinct":41,"borough":"Bronx"},"geometry":{"type":"Point","coordinates":[-73.89215,40.81641]}},{"type":"Feature","properties":{"precinct":42,"borough":"Bronx"},"geometry":{"type":"Point","coordinates":[-73.89803,40.8364]}},{"type":"Feature","properties":{"precinct":43,"borough":"Bronx"},"geometry":{"type":"Point","coordinates":[-73.86357,40.82663]}},{"type":"Feature","properties":{"precinct":44,"borough":"Bronx"},"geometry":{"type":"Point","coordinates":[-73.92161,40.83431]}},{"type":"Feature","properties":{"precinct":45,"borough":"Bronx"},"geometry":{"type":"Point","coordinates":[-73.82682,40.82638]}},{"type":"Feature","properties":{"precinct":46,"borough":"Bronx"},"geometry":{"type":"Point","coordinates":[-73.91409,40.85212]}},{"type":"Feature","properties":{"precinct":47,"borough":"Bronx"},"geometry":{"type":"Point","coordinates":[-73.8518,40.88793]}},{"type":"Feature","properties":{"precinct":48,"borough":"Bronx"},"geometry":{"type":"Point","coordinates":[-73.89039,40.85003]}},{"type":"Feature","properties":{"precinct":49,"borough":"Bronx"},"geometry":{"type":"Point","coordinates":[-73.85333,40.85636]}},{"type":"Feature","properties":{"precinct":50,"borough":"Bronx"},"geometry":{"type":"Point","coordinates":[-73.89995,40.89519]}},{"type":"Feature","properties":{"precinct":52,"borough":"Bronx"},"geometry":{"type":"Point","coordinates":[-73.88374,40.87487]}},{"type":"Feature","properties":{"precinct":60,"borough":"Brooklyn"},"geometry":{"type":"Point","coordinates":[-73.97759,40.58026]}},{"type":"Feature","properties":{"precinct":61,"borough":"Brooklyn"},"geometry":{"type":"Point","coordinates":[-73.94915,40.59728]}},{"type":"Feature","properties":{"precinct":62,"borough":"Brooklyn"},"geometry":{"type":"Point","coordinates":[-73.99466,40.60806]}},{"type":"Feature","properties":{"precinct":63,"borough":"Brooklyn"},"geometry":{"type":"Point","coordinates":[-73.93011,40.61946]}},{"type":"Feature","properties":{"precinct":66,"borough":"Brooklyn"},"geometry":{"type":"Point","coordinates":[-73.98787,40.63391]}},{"type":"Feature","properties":{"precinct":67,"borough":"Brooklyn"},"geometry":{"type":"Point","coordinates":[-73.9385,40.64463]}},{"type":"Feature","properties":{"precinct":68,"borough":"Brooklyn"},"geometry":{"type":"Point","coordinates":[-74.02514,40.62203]}},{"type":"Feature","properties":{"precinct":69,"borough":"Brooklyn"},"geometry":{"type":"Point","coordinates":[-73.90083,40.63957]}},{"type":"Feature","properties":{"precinct":70,"borough":"Brooklyn"},"geometry":{"type":"Point","coordinates":[-73.95663,40.62961]}},{"type":"Feature","properties":{"precinct":71,"borough":"Brooklyn"},"geometry":{"type":"Point","coordinates":[-73.95359,40.66262]}},{"type":"Feature","properties":{"precinct":72,"borough":"Brooklyn"},"geometry":{"type":"Point","coordinates":[-74.01305,40.64556]}},{"type":"Feature","properties":{"precinct":73,"borough":"Brooklyn"},"geometry":{"type":"Point","coordinates":[-73.91169,40.66808]}},{"type":"Feature","properties":{"precinct":75,"borough":"Brooklyn"},"geometry":{"type":"Point","coordinates":[-73.87864,40.67118]}},{"type":"Feature","properties":{"precinct":76,"borough":"Brooklyn"},"geometry":{"type":"Point","coordinates":[-74.00311,40.67868]}},{"type":"Feature","properties":{"precinct":77,"borough":"Brooklyn"},"geometry":{"type":"Point","coordinates":[-73.96074,40.67579]}},{"type":"Feature","properties":{"precinct":78,"borough":"Brooklyn"},"geometry":{"type":"Point","coordinates":[-73.97878,40.67147]}},{"type":"Feature","properties":{"precinct":79,"borough":"Brooklyn"},"geometry":{"type":"Point","coordinates":[-73.94974,40.68954]}},{"type":"Feature","properties":{"precinct":81,"borough":"Brooklyn"},"geometry":{"type":"Point","coordinates":[-73.93049,40.68528]}},{"type":"Feature","properties":{"precinct":83,"borough":"Brooklyn"},"geometry":{"type":"Point","coordinates":[-73.92086,40.69875]}},{"type":"Feature","properties":{"precinct":84,"borough":"Brooklyn"},"geometry":{"type":"Point","coordinates":[-73.98979,40.69668]}},{"type":"Feature","properties":{"precinct":88,"borough":"Brooklyn"},"geometry":{"type":"Point","coordinates":[-73.96927,40.6915]}},{"type":"Feature","properties":{"precinct":90,"borough":"Brooklyn"},"geometry":{"type":"Point","coordinates":[-73.95787,40.70662]}},{"type":"Feature","properties":{"precinct":94,"borough":"Brooklyn"},"geometry":{"type":"Point","coordinates":[-73.94785,40.72434]}},{"type":"Feature","properties":{"precinct":100,"borough":"Queens"},"geometry":{"type":"Point","coordinates":[-73.92352,40.5558]}},{"type":"Feature","properties":{"precinct":101,"borough":"Queens"},"geometry":{"type":"Point","coordinates":[-73.75536,40.60055]}},{"type":"Feature","properties":{"precinct":102,"borough":"Queens"},"geometry":{"type":"Point","coordinates":[-73.82989,40.70018]}},{"type":"Feature","properties":{"precinct":103,"borough":"Queens"},"geometry":{"type":"Point","coordinates":[-73.8027,40.69766]}},{"type":"Feature","properties":{"precinct":104,"borough":"Queens"},"geometry":{"type":"Point","coordinates":[-73.88908,40.70864]}},{"type":"Feature","properties":{"precinct":105,"borough":"Queens"},"geometry":{"type":"Point","coordinates":[-73.71599,40.7414]}},{"type":"Feature","properties":{"precinct":106,"borough":"Queens"},"geometry":{"type":"Point","coordinates":[-73.81738,40.67622]}},{"type":"Feature","properties":{"precinct":107,"borough":"Queens"},"geometry":{"type":"Point","coordinates":[-73.81018,40.72241]}},{"type":"Feature","properties":{"precinct":108,"borough":"Queens"},"geometry":{"type":"Point","coordinates":[-73.91648,40.73702]}},{"type":"Feature","properties":{"precinct":109,"borough":"Queens"},"geometry":{"type":"Point","coordinates":[-73.81577,40.77217]}},{"type":"Feature","properties":{"precinct":110,"borough":"Queens"},"geometry":{"type":"Point","coordinates":[-73.87967,40.73886]}},{"type":"Feature","properties":{"precinct":111,"borough":"Queens"},"geometry":{"type":"Point","coordinates":[-73.77625,40.76081]}},{"type":"Feature","properties":{"precinct":112,"borough":"Queens"},"geometry":{"type":"Point","coordinates":[-73.84916,40.72084]}},{"type":"Feature","properties":{"precinct":113,"borough":"Queens"},"geometry":{"type":"Point","coordinates":[-73.77419,40.64263]}},{"type":"Feature","properties":{"precinct":114,"borough":"Queens"},"geometry":{"type":"Point","coordinates":[-73.9127,40.76843]}},{"type":"Feature","properties":{"precinct":115,"borough":"Queens"},"geometry":{"type":"Point","coordinates":[-73.87529,40.76203]}},{"type":"Feature","properties":{"precinct":116,"borough":"Queens"},"geometry":{"type":"Point","coordinates":[-73.74687,40.66599]}},{"type":"Feature","properties":{"precinct":120,"borough":"Staten Island"},"geometry":{"type":"Point","coordinates":[-74.09136,40.62805]}},{"type":"Feature","properties":{"precinct":121,"borough":"Staten Island"},"geometry":{"type":"Point","coordinates":[-74.16871,40.60877]}},{"type":"Feature","properties":{"precinct":122,"borough":"Staten Island"},"geometry":{"type":"Point","coordinates":[-74.11926,40.57495]}},{"type":"Feature","properties":{"precinct":123,"borough":"Staten Island"},"geometry":{"type":"Point","coordinates":[-74.19169,40.54359]}}]}